CCSDS_OMM_VERS = 2.0
CREATION_DATE  = 
ORIGINATOR     = 

OBJECT_NAME    = ATLAS CENTAUR R/B
OBJECT_ID      = 1972-065B
CENTER_NAME    = EARTH
REF_FRAME      = TEME
TIME_SYSTEM    = UTC
MEAN_ELEMENT_THEORY = SGP/SGP4

EPOCH          = 2025-11-03T17:34:19.424928
MEAN_MOTION    = 14.77249899
ECCENTRICITY   = .00334512
INCLINATION    = 35.0025
RA_OF_ASC_NODE = 323.6705
ARG_OF_PERICENTER = 29.7390
MEAN_ANOMALY   = 330.5204

EPHEMERIS_TYPE = 0
CLASSIFICATION_TYPE = U
NORAD_CAT_ID   = 6155
ELEMENT_SET_NO = 999
REV_AT_EPOCH   = 82262
BSTAR          = .21962204E-3
MEAN_MOTION_DOT = .1573E-4
MEAN_MOTION_DDOT = 0

CCSDS_OMM_VERS = 2.0
CREATION_DATE  = 
ORIGINATOR     = 

OBJECT_NAME    = SL-8 R/B
OBJECT_ID      = 1975-112B
CENTER_NAME    = EARTH
REF_FRAME      = TEME
TIME_SYSTEM    = UTC
MEAN_ELEMENT_THEORY = SGP/SGP4

EPOCH          = 2025-11-04T03:41:10.770432
MEAN_MOTION    = 14.38106618
ECCENTRICITY   = .0015396
INCLINATION    = 74.0600
RA_OF_ASC_NODE = 249.8267
ARG_OF_PERICENTER = 7.5454
MEAN_ANOMALY   = 352.5929

EPHEMERIS_TYPE = 0
CLASSIFICATION_TYPE = U
NORAD_CAT_ID   = 8459
ELEMENT_SET_NO = 999
REV_AT_EPOCH   = 61382
BSTAR          = .11818E-3
MEAN_MOTION_DOT = .332E-5
MEAN_MOTION_DDOT = 0

CCSDS_OMM_VERS = 2.0
CREATION_DATE  = 
ORIGINATOR     = 

OBJECT_NAME    = SL-3 R/B
OBJECT_ID      = 1977-057B
CENTER_NAME    = EARTH
REF_FRAME      = TEME
TIME_SYSTEM    = UTC
MEAN_ELEMENT_THEORY = SGP/SGP4

EPOCH          = 2025-11-04T03:39:46.304064
MEAN_MOTION    = 15.41703112
ECCENTRICITY   = .0008255
INCLINATION    = 97.5673
RA_OF_ASC_NODE = 110.0182
ARG_OF_PERICENTER = 24.7566
MEAN_ANOMALY   = 335.4075

EPHEMERIS_TYPE = 0
CLASSIFICATION_TYPE = U
NORAD_CAT_ID   = 10114
ELEMENT_SET_NO = 999
REV_AT_EPOCH   = 64896
BSTAR          = .30313E-3
MEAN_MOTION_DOT = .12724E-3
MEAN_MOTION_DDOT = 0

CCSDS_OMM_VERS = 2.0
CREATION_DATE  = 
ORIGINATOR     = 

OBJECT_NAME    = SEASAT 1
OBJECT_ID      = 1978-064A
CENTER_NAME    = EARTH
REF_FRAME      = TEME
TIME_SYSTEM    = UTC
MEAN_ELEMENT_THEORY = SGP/SGP4

EPOCH          = 2025-11-04T00:16:33.347712
MEAN_MOTION    = 14.45993696
ECCENTRICITY   = .0002523
INCLINATION    = 108.0054
RA_OF_ASC_NODE = 221.7996
ARG_OF_PERICENTER = 259.9142
MEAN_ANOMALY   = 100.1719

EPHEMERIS_TYPE = 0
CLASSIFICATION_TYPE = U
NORAD_CAT_ID   = 10967
ELEMENT_SET_NO = 999
REV_AT_EPOCH   = 48834
BSTAR          = .16912E-3
MEAN_MOTION_DOT = .466E-5
MEAN_MOTION_DDOT = 0

CCSDS_OMM_VERS = 2.0
CREATION_DATE  = 
ORIGINATOR     = 

OBJECT_NAME    = SL-14 R/B
OBJECT_ID      = 1979-011B
CENTER_NAME    = EARTH
REF_FRAME      = TEME
TIME_SYSTEM    = UTC
MEAN_ELEMENT_THEORY = SGP/SGP4

EPOCH          = 2025-11-04T03:37:52.159296
MEAN_MOTION    = 14.91696075
ECCENTRICITY   = .001756
INCLINATION    = 82.5262
RA_OF_ASC_NODE = 215.6331
ARG_OF_PERICENTER = 114.1789
MEAN_ANOMALY   = 246.1269

EPHEMERIS_TYPE = 0
CLASSIFICATION_TYPE = U
NORAD_CAT_ID   = 11267
ELEMENT_SET_NO = 999
REV_AT_EPOCH   = 51006
BSTAR          = .74138E-4
MEAN_MOTION_DOT = .773E-5
MEAN_MOTION_DDOT = 0

CCSDS_OMM_VERS = 2.0
CREATION_DATE  = 
ORIGINATOR     = 

OBJECT_NAME    = SL-8 R/B
OBJECT_ID      = 1979-089B
CENTER_NAME    = EARTH
REF_FRAME      = TEME
TIME_SYSTEM    = UTC
MEAN_ELEMENT_THEORY = SGP/SGP4

EPOCH          = 2025-11-04T03:09:12.064032
MEAN_MOTION    = 14.42243267
ECCENTRICITY   = .00154
INCLINATION    = 74.0684
RA_OF_ASC_NODE = 323.4382
ARG_OF_PERICENTER = 172.4551
MEAN_ANOMALY   = 187.6840

EPHEMERIS_TYPE = 0
CLASSIFICATION_TYPE = U
NORAD_CAT_ID   = 11574
ELEMENT_SET_NO = 999
REV_AT_EPOCH   = 41800
BSTAR          = .11832E-3
MEAN_MOTION_DOT = .364E-5
MEAN_MOTION_DDOT = 0

CCSDS_OMM_VERS = 2.0
CREATION_DATE  = 
ORIGINATOR     = 

OBJECT_NAME    = SL-14 R/B
OBJECT_ID      = 1980-005B
CENTER_NAME    = EARTH
REF_FRAME      = TEME
TIME_SYSTEM    = UTC
MEAN_ELEMENT_THEORY = SGP/SGP4

EPOCH          = 2025-11-04T01:57:49.756896
MEAN_MOTION    = 14.90710140
ECCENTRICITY   = .0014858
INCLINATION    = 82.5148
RA_OF_ASC_NODE = 66.3532
ARG_OF_PERICENTER = 218.2266
MEAN_ANOMALY   = 141.7900

EPHEMERIS_TYPE = 0
CLASSIFICATION_TYPE = U
NORAD_CAT_ID   = 11672
ELEMENT_SET_NO = 999
REV_AT_EPOCH   = 45777
BSTAR          = .90806E-4
MEAN_MOTION_DOT = .917E-5
MEAN_MOTION_DDOT = 0

CCSDS_OMM_VERS = 2.0
CREATION_DATE  = 
ORIGINATOR     = 

OBJECT_NAME    = SL-8 R/B
OBJECT_ID      = 1981-003B
CENTER_NAME    = EARTH
REF_FRAME      = TEME
TIME_SYSTEM    = UTC
MEAN_ELEMENT_THEORY = SGP/SGP4

EPOCH          = 2025-11-04T00:02:12.905664
MEAN_MOTION    = 15.04905877
ECCENTRICITY   = .0283711
INCLINATION    = 82.9339
RA_OF_ASC_NODE = 45.7978
ARG_OF_PERICENTER = 254.2291
MEAN_ANOMALY   = 102.7487

EPHEMERIS_TYPE = 0
CLASSIFICATION_TYPE = U
NORAD_CAT_ID   = 12139
ELEMENT_SET_NO = 999
REV_AT_EPOCH   = 29573
BSTAR          = .67166E-3
MEAN_MOTION_DOT = .24001E-3
MEAN_MOTION_DDOT = 0

CCSDS_OMM_VERS = 2.0
CREATION_DATE  = 
ORIGINATOR     = 

OBJECT_NAME    = SL-3 R/B
OBJECT_ID      = 1981-046B
CENTER_NAME    = EARTH
REF_FRAME      = TEME
TIME_SYSTEM    = UTC
MEAN_ELEMENT_THEORY = SGP/SGP4

EPOCH          = 2025-11-04T03:20:53.160288
MEAN_MOTION    = 15.38404806
ECCENTRICITY   = .0020841
INCLINATION    = 81.2319
RA_OF_ASC_NODE = 80.0658
ARG_OF_PERICENTER = 96.2408
MEAN_ANOMALY   = 264.1207

EPHEMERIS_TYPE = 0
CLASSIFICATION_TYPE = U
NORAD_CAT_ID   = 12465
ELEMENT_SET_NO = 999
REV_AT_EPOCH   = 41910
BSTAR          = .37322E-3
MEAN_MOTION_DOT = .14276E-3
MEAN_MOTION_DDOT = 0

CCSDS_OMM_VERS = 2.0
CREATION_DATE  = 
ORIGINATOR     = 

OBJECT_NAME    = METEOR PRIRODA
OBJECT_ID      = 1981-065A
CENTER_NAME    = EARTH
REF_FRAME      = TEME
TIME_SYSTEM    = UTC
MEAN_ELEMENT_THEORY = SGP/SGP4

EPOCH          = 2025-11-04T04:07:01.971840
MEAN_MOTION    = 16.02061644
ECCENTRICITY   = .0002433
INCLINATION    = 97.4660
RA_OF_ASC_NODE = 11.7679
ARG_OF_PERICENTER = 282.9709
MEAN_ANOMALY   = 77.1299

EPHEMERIS_TYPE = 0
CLASSIFICATION_TYPE = U
NORAD_CAT_ID   = 12585
ELEMENT_SET_NO = 999
REV_AT_EPOCH   = 42461
BSTAR          = .73981E-3
MEAN_MOTION_DOT = .421099E-2
MEAN_MOTION_DDOT = .80266E-4

CCSDS_OMM_VERS = 2.0
CREATION_DATE  = 
ORIGINATOR     = 

OBJECT_NAME    = SL-3 R/B
OBJECT_ID      = 1981-103B
CENTER_NAME    = EARTH
REF_FRAME      = TEME
TIME_SYSTEM    = UTC
MEAN_ELEMENT_THEORY = SGP/SGP4

EPOCH          = 2025-11-04T00:21:30.913632
MEAN_MOTION    = 15.19555040
ECCENTRICITY   = .0017355
INCLINATION    = 81.1625
RA_OF_ASC_NODE = 0.6845
ARG_OF_PERICENTER = 8.7080
MEAN_ANOMALY   = 351.4448

EPHEMERIS_TYPE = 0
CLASSIFICATION_TYPE = U
NORAD_CAT_ID   = 12904
ELEMENT_SET_NO = 999
REV_AT_EPOCH   = 95413
BSTAR          = .24177E-3
MEAN_MOTION_DOT = .5184E-4
MEAN_MOTION_DDOT = 0

CCSDS_OMM_VERS = 2.0
CREATION_DATE  = 
ORIGINATOR     = 

OBJECT_NAME    = SL-3 R/B
OBJECT_ID      = 1982-013B
CENTER_NAME    = EARTH
REF_FRAME      = TEME
TIME_SYSTEM    = UTC
MEAN_ELEMENT_THEORY = SGP/SGP4

EPOCH          = 2025-11-04T03:41:31.501248
MEAN_MOTION    = 15.20576126
ECCENTRICITY   = .0021549
INCLINATION    = 81.1725
RA_OF_ASC_NODE = 307.7651
ARG_OF_PERICENTER = 240.5896
MEAN_ANOMALY   = 119.3184

EPHEMERIS_TYPE = 0
CLASSIFICATION_TYPE = U
NORAD_CAT_ID   = 13068
ELEMENT_SET_NO = 999
REV_AT_EPOCH   = 38526
BSTAR          = .25403E-3
MEAN_MOTION_DOT = .5622E-4
MEAN_MOTION_DDOT = 0

