ATLAS CENTAUR R/B       
1 06155U 72065B   25307.73216927  .00001573  00000+0  21962-3 0  9999
2 06155  35.0025 323.6705 0033451  29.7390 330.5204 14.77249899822623
SL-8 R/B                
1 08459U 75112B   25308.15359688  .00000332  00000+0  11818-3 0  9994
2 08459  74.0600 249.8267 0015396   7.5454 352.5929 14.38106618613825
SL-3 R/B                
1 10114U 77057B   25308.15261926  .00012724  00000+0  30313-3 0  9991
2 10114  97.5673 110.0182 0008255  24.7566 335.4075 15.41703112648964
SEASAT 1                
1 10967U 78064A   25308.01149708  .00000466  00000+0  16912-3 0  9993
2 10967 108.0054 221.7996 0002523 259.9142 100.1719 14.45993696488345
SL-14 R/B               
1 11267U 79011B   25308.15129814  .00000773  00000+0  74138-4 0  9997
2 11267  82.5262 215.6331 0017560 114.1789 246.1269 14.91696075510065
SL-8 R/B                
1 11574U 79089B   25308.13138963  .00000364  00000+0  11832-3 0  9993
2 11574  74.0684 323.4382 0015400 172.4551 187.6840 14.42243267418001
SL-14 R/B               
1 11672U 80005B   25308.08182589  .00000917  00000+0  90806-4 0  9992
2 11672  82.5148  66.3532 0014858 218.2266 141.7900 14.90710140457774
SL-8 R/B                
1 12139U 81003B   25308.00153826  .00024001  00000+0  67166-3 0  9996
2 12139  82.9339  45.7978 0283711 254.2291 102.7487 15.04905877295730
SL-3 R/B                
1 12465U 81046B   25308.13950417  .00014276  00000+0  37322-3 0  9994
2 12465  81.2319  80.0658 0020841  96.2408 264.1207 15.38404806419101
METEOR PRIRODA          
1 12585U 81065A   25308.17155060  .00421099  80266-4  73981-3 0  9996
2 12585  97.4660  11.7679 0002433 282.9709  77.1299 16.02061644424617
SL-3 R/B                
1 12904U 81103B   25308.01494113  .00005184  00000+0  24177-3 0  9991
2 12904  81.1625   0.6845 0017355   8.7080 351.4448 15.19555040954134
SL-3 R/B                
1 13068U 82013B   25308.15383682  .00005622  00000+0  25403-3 0  9997
2 13068  81.1725 307.7651 0021549 240.5896 119.3184 15.20576126385264
